{
  "norad_id": 59306,
  "name": "STARLINK-31480",
  "history": [
    {
      "epoch": "2026-03-28T09:01:44.358240Z",
      "apogee_km": 483.79465397338754,
      "perigee_km": 482.2930159358493,
      "latitude_deg": 1.4949776853171834e-05,
      "longitude_deg": 163.81614684283497,
      "height_km": 482.89067763257657,
      "semi_major_axis_km": 6861.180834954618,
      "eccentricity": 0.00010943,
      "inclination_deg": 43.0012,
      "raan_deg": 125.0485,
      "arg_perigee_deg": 264.6288,
      "mean_anomaly_deg": 95.4439,
      "mean_motion_rev_day": 15.27581757
    },
    {
      "epoch": "2026-03-29T03:51:36.814464Z",
      "apogee_km": 483.7152214804364,
      "perigee_km": 482.37043023456863,
      "latitude_deg": -1.2105576110943146e-05,
      "longitude_deg": -123.8593212286048,
      "height_km": 483.01447669626594,
      "semi_major_axis_km": 6861.179825857503,
      "eccentricity": 9.8e-05,
      "inclination_deg": 42.9996,
      "raan_deg": 120.615,
      "arg_perigee_deg": 253.1044,
      "mean_anomaly_deg": 106.97,
      "mean_motion_rev_day": 15.27582094
    },
    {
      "epoch": "2026-03-30T01:49:48.196992Z",
      "apogee_km": 483.78085357739656,
      "perigee_km": 482.2988393785581,
      "latitude_deg": -6.514979391465615e-05,
      "longitude_deg": -99.47707327385241,
      "height_km": 482.91360328240745,
      "semi_major_axis_km": 6861.176846477977,
      "eccentricity": 0.000108,
      "inclination_deg": 43.0015,
      "raan_deg": 115.447,
      "arg_perigee_deg": 262.4646,
      "mean_anomaly_deg": 97.6082,
      "mean_motion_rev_day": 15.27583089
    },
    {
      "epoch": "2026-03-30T01:49:48.197856Z",
      "apogee_km": 483.78085357739656,
      "perigee_km": 482.2988393785581,
      "latitude_deg": 3.4608074094213557e-06,
      "longitude_deg": -99.47700371824335,
      "height_km": 482.91359438406124,
      "semi_major_axis_km": 6861.176846477977,
      "eccentricity": 0.000108,
      "inclination_deg": 43.0015,
      "raan_deg": 115.447,
      "arg_perigee_deg": 262.4647,
      "mean_anomaly_deg": 97.6082,
      "mean_motion_rev_day": 15.27583089
    },
    {
      "epoch": "2026-03-30T08:06:25.627968Z",
      "apogee_km": 483.819700353818,
      "perigee_km": 482.2541176912564,
      "latitude_deg": -2.25931262961787e-05,
      "longitude_deg": 164.63232014550184,
      "height_km": 482.87713553698427,
      "semi_major_axis_km": 6861.1739090225365,
      "eccentricity": 0.00011409,
      "inclination_deg": 43.0016,
      "raan_deg": 113.9701,
      "arg_perigee_deg": 265.3415,
      "mean_anomaly_deg": 94.7306,
      "mean_motion_rev_day": 15.2758407
    },
    {
      "epoch": "2026-03-31T10:47:05.483328Z",
      "apogee_km": 483.8418061376533,
      "perigee_km": 482.2571465090823,
      "latitude_deg": 4.446053858876978e-05,
      "longitude_deg": 117.09431329238821,
      "height_km": 482.84541926114053,
      "semi_major_axis_km": 6861.186476323367,
      "eccentricity": 0.00011548,
      "inclination_deg": 43.0028,
      "raan_deg": 107.6937,
      "arg_perigee_deg": 268.6155,
      "mean_anomaly_deg": 91.4565,
      "mean_motion_rev_day": 15.27579873
    }
  ]
}